{
  "norad_id": 63697,
  "name": "STARLINK-33894",
  "history": [
    {
      "epoch": "2026-03-28T20:01:59.231712Z",
      "apogee_km": 477.31455653928606,
      "perigee_km": 473.1041346783977,
      "latitude_deg": -2.7875795290187577e-05,
      "longitude_deg": 3.6838135304972477,
      "height_km": 475.51272576017897,
      "semi_major_axis_km": 6853.346345608841,
      "eccentricity": 0.00030718,
      "inclination_deg": 53.1607,
      "raan_deg": 130.4301,
      "arg_perigee_deg": 73.6594,
      "mean_anomaly_deg": 286.4744,
      "mean_motion_rev_day": 15.30201917
    },
    {
      "epoch": "2026-03-29T02:18:11.541024Z",
      "apogee_km": 476.7727346537313,
      "perigee_km": 473.5914239371223,
      "latitude_deg": -2.649244994888911e-05,
      "longitude_deg": -91.83877753472821,
      "height_km": 475.621513161316,
      "semi_major_axis_km": 6853.3190792954265,
      "eccentricity": 0.0002321,
      "inclination_deg": 53.1587,
      "raan_deg": 129.2163,
      "arg_perigee_deg": 73.2978,
      "mean_anomaly_deg": 286.8277,
      "mean_motion_rev_day": 15.30211049
    },
    {
      "epoch": "2026-03-29T08:34:24.128544Z",
      "apogee_km": 475.91823387071327,
      "perigee_km": 474.48561190227247,
      "latitude_deg": 3.6740195916304566e-05,
      "longitude_deg": 172.63591525797167,
      "height_km": 475.9190980206332,
      "semi_major_axis_km": 6853.338922886493,
      "eccentricity": 0.00010452,
      "inclination_deg": 53.1594,
      "raan_deg": 128.0009,
      "arg_perigee_deg": 75.3483,
      "mean_anomaly_deg": 284.7634,
      "mean_motion_rev_day": 15.30204403
    },
    {
      "epoch": "2026-03-30T11:13:18.854112Z",
      "apogee_km": 476.4326078204149,
      "perigee_km": 474.06339262583697,
      "latitude_deg": -4.571909299430946e-05,
      "longitude_deg": 126.65841504765574,
      "height_km": 475.79037785815615,
      "semi_major_axis_km": 6853.385000223126,
      "eccentricity": 0.00017285,
      "inclination_deg": 53.1584,
      "raan_deg": 122.8459,
      "arg_perigee_deg": 72.5615,
      "mean_anomaly_deg": 287.5574,
      "mean_motion_rev_day": 15.30188971
    },
    {
      "epoch": "2026-03-30T19:03:34.915968Z",
      "apogee_km": 476.5093668680747,
      "perigee_km": 473.9396304405391,
      "latitude_deg": 3.528662538724073e-05,
      "longitude_deg": 7.2525645795861875,
      "height_km": 475.87756110767987,
      "semi_major_axis_km": 6853.361498654307,
      "eccentricity": 0.00018748,
      "inclination_deg": 53.1588,
      "raan_deg": 121.3288,
      "arg_perigee_deg": 79.0494,
      "mean_anomaly_deg": 281.0718,
      "mean_motion_rev_day": 15.30196842
    },
    {
      "epoch": "2026-03-31T12:18:09.686304Z",
      "apogee_km": 475.9322266708259,
      "perigee_km": 474.44669962667376,
      "latitude_deg": -3.25346138681819e-05,
      "longitude_deg": 104.5635940955473,
      "height_km": 476.0231725458333,
      "semi_major_axis_km": 6853.32646314875,
      "eccentricity": 0.00010838,
      "inclination_deg": 53.1577,
      "raan_deg": 117.9929,
      "arg_perigee_deg": 85.0271,
      "mean_anomaly_deg": 275.0853,
      "mean_motion_rev_day": 15.30208576
    },
    {
      "epoch": "2026-04-01T18:05:10.614048Z",
      "apogee_km": 476.42312210504224,
      "perigee_km": 473.90796007246354,
      "latitude_deg": 2.781556054522656e-05,
      "longitude_deg": 10.821306456431186,
      "height_km": 475.92470008798637,
      "semi_major_axis_km": 6853.302541088753,
      "eccentricity": 0.0001835,
      "inclination_deg": 53.1565,
      "raan_deg": 112.2276,
      "arg_perigee_deg": 83.7108,
      "mean_anomaly_deg": 276.4102,
      "mean_motion_rev_day": 15.30216588
    },
    {
      "epoch": "2026-04-02T08:11:39.110496Z",
      "apogee_km": 476.12181988604334,
      "perigee_km": 474.19439916943975,
      "latitude_deg": 1.9354448259507565e-05,
      "longitude_deg": 155.89057398429,
      "height_km": 476.02808491621187,
      "semi_major_axis_km": 6853.295109527741,
      "eccentricity": 0.00014062,
      "inclination_deg": 53.1574,
      "raan_deg": 109.495,
      "arg_perigee_deg": 88.3566,
      "mean_anomaly_deg": 271.7596,
      "mean_motion_rev_day": 15.30219077
    },
    {
      "epoch": "2026-04-03T07:42:26.852832Z",
      "apogee_km": 476.236774424925,
      "perigee_km": 474.2054390820831,
      "latitude_deg": -2.5903883966624443e-05,
      "longitude_deg": 157.67505895015861,
      "height_km": 476.07208094622894,
      "semi_major_axis_km": 6853.358106753504,
      "eccentricity": 0.0001482,
      "inclination_deg": 53.1576,
      "raan_deg": 104.9441,
      "arg_perigee_deg": 87.3728,
      "mean_anomaly_deg": 272.7442,
      "mean_motion_rev_day": 15.30197978
    },
    {
      "epoch": "2026-04-04T07:13:15.247488Z",
      "apogee_km": 476.02235292824025,
      "perigee_km": 474.256263623598,
      "latitude_deg": 2.0462042415807396e-05,
      "longitude_deg": 159.45978597172743,
      "height_km": 475.9086334317869,
      "semi_major_axis_km": 6853.276308275918,
      "eccentricity": 0.00012885,
      "inclination_deg": 53.1576,
      "raan_deg": 100.3961,
      "arg_perigee_deg": 81.633,
      "mean_anomaly_deg": 278.4817,
      "mean_motion_rev_day": 15.30225374
    },
    {
      "epoch": "2026-04-05T09:52:11.529120Z",
      "apogee_km": 476.2552880185076,
      "perigee_km": 474.52038674117284,
      "latitude_deg": -3.190579226855241e-05,
      "longitude_deg": 113.47300456147536,
      "height_km": 476.2293746209967,
      "semi_major_axis_km": 6853.52483737984,
      "eccentricity": 0.00012657,
      "inclination_deg": 53.1588,
      "raan_deg": 95.2383,
      "arg_perigee_deg": 86.272,
      "mean_anomaly_deg": 273.8425,
      "mean_motion_rev_day": 15.30142139
    },
    {
      "epoch": "2026-04-06T06:14:52.385856Z",
      "apogee_km": 476.02952327499315,
      "perigee_km": 474.22259193722493,
      "latitude_deg": -2.5082686896662123e-05,
      "longitude_deg": 163.02167617552416,
      "height_km": 475.89936729101987,
      "semi_major_axis_km": 6853.263057606109,
      "eccentricity": 0.00013183,
      "inclination_deg": 53.1592,
      "raan_deg": 91.2941,
      "arg_perigee_deg": 82.0698,
      "mean_anomaly_deg": 278.0452,
      "mean_motion_rev_day": 15.30229812
    },
    {
      "epoch": "2026-04-07T05:45:40.279392Z",
      "apogee_km": 476.28192448439586,
      "perigee_km": 474.28058928502014,
      "latitude_deg": 1.0708998326679281e-05,
      "longitude_deg": 164.80798683069858,
      "height_km": 475.85405684813526,
      "semi_major_axis_km": 6853.418256884708,
      "eccentricity": 0.00014601,
      "inclination_deg": 53.1606,
      "raan_deg": 86.7456,
      "arg_perigee_deg": 71.0365,
      "mean_anomaly_deg": 289.0794,
      "mean_motion_rev_day": 15.30177833
    },
    {
      "epoch": "2026-04-08T08:24:35.462880Z",
      "apogee_km": 476.2823854754233,
      "perigee_km": 474.154829760595,
      "latitude_deg": 6.163784565136554e-05,
      "longitude_deg": 118.82546859979753,
      "height_km": 475.83599210696946,
      "semi_major_axis_km": 6853.355607618009,
      "eccentricity": 0.00015522,
      "inclination_deg": 53.1611,
      "raan_deg": 81.5874,
      "arg_perigee_deg": 74.7119,
      "mean_anomaly_deg": 285.4054,
      "mean_motion_rev_day": 15.30198815
    },
    {
      "epoch": "2026-04-09T15:45:38.060928Z",
      "apogee_km": 476.31189771842946,
      "perigee_km": 473.9530023737243,
      "latitude_deg": -4.565287541869563e-05,
      "longitude_deg": 1.207631162442833,
      "height_km": 475.784268146188,
      "semi_major_axis_km": 6853.269450046077,
      "eccentricity": 0.0001721,
      "inclination_deg": 53.1616,
      "raan_deg": 75.518,
      "arg_perigee_deg": 77.9676,
      "mean_anomaly_deg": 282.1517,
      "mean_motion_rev_day": 15.30227671
    },
    {
      "epoch": "2026-04-10T04:18:02.951712Z",
      "apogee_km": 475.4448241154805,
      "perigee_km": 474.95426228571796,
      "latitude_deg": -4.354570763108416e-05,
      "longitude_deg": 170.15911004694772,
      "height_km": 476.20836937347394,
      "semi_major_axis_km": 6853.3365432005985,
      "eccentricity": 3.579e-05,
      "inclination_deg": 53.1642,
      "raan_deg": 73.0882,
      "arg_perigee_deg": 116.3983,
      "mean_anomaly_deg": 243.7054,
      "mean_motion_rev_day": 15.302052
    },
    {
      "epoch": "2026-04-11T21:03:26.407872Z",
      "apogee_km": 476.6757981262299,
      "perigee_km": 473.72201035150283,
      "latitude_deg": -4.056653055318478e-05,
      "longitude_deg": -90.74793567973151,
      "height_km": 476.0413132028348,
      "semi_major_axis_km": 6853.3359042388665,
      "eccentricity": 0.0002155,
      "inclination_deg": 53.1615,
      "raan_deg": 65.2027,
      "arg_perigee_deg": 87.8824,
      "mean_anomaly_deg": 272.2423,
      "mean_motion_rev_day": 15.30205414
    },
    {
      "epoch": "2026-04-13T05:58:33.241440Z",
      "apogee_km": 476.19116508443767,
      "perigee_km": 474.22219944452263,
      "latitude_deg": -2.3334028721217676e-05,
      "longitude_deg": 127.74928598253221,
      "height_km": 476.34819364707465,
      "semi_major_axis_km": 6853.34368226448,
      "eccentricity": 0.00014365,
      "inclination_deg": 53.1607,
      "raan_deg": 58.8303,
      "arg_perigee_deg": 104.3218,
      "mean_anomaly_deg": 255.7942,
      "mean_motion_rev_day": 15.30202809
    },
    {
      "epoch": "2026-04-14T07:03:24.812352Z",
      "apogee_km": 476.749623882215,
      "perigee_km": 473.69850753576156,
      "latitude_deg": -2.8014365673199057e-05,
      "longitude_deg": 105.65316484384567,
      "height_km": 476.03281697319113,
      "semi_major_axis_km": 6853.361065708988,
      "eccentricity": 0.0002226,
      "inclination_deg": 53.1597,
      "raan_deg": 53.9791,
      "arg_perigee_deg": 86.6958,
      "mean_anomaly_deg": 273.4297,
      "mean_motion_rev_day": 15.30196987
    }
  ]
}